NORAD_CAT_ID,OBJECT_NAME,OBJECT_TYPE,EPOCH,MEAN_MOTION,ECCENTRICITY,INCLINATION,RA_OF_ASC_NODE,ARG_OF_PERICENTER,MEAN_ANOMALY,BSTAR,MEAN_MOTION_DOT,MEAN_MOTION_DDOT,TLE_LINE0,TLE_LINE1,TLE_LINE2,SEMIMAJOR_AXIS,PERIOD,APOGEE,PERIGEE,DECAYED
54088.0,STARLINK-5153,PAYLOAD,2022-12-11 14:00:01,15.45807455,0.000112,53.2174,251.8417,63.4352,335.9284,-0.025327,-0.01140721,0.0,0 STARLINK-5153,1 54088U 22136AP  22345.58334491 -.01140721  00000-0 -25327-1 0  9990,2 54088  53.2174 251.8417 0001120  63.4352 335.9284 15.45807455  1306,6807.144,93.155,429.771,428.246,0.0
54088.0,STARLINK-5153,PAYLOAD,2022-12-11 16:00:00,15.45606519,0.0001324,53.2173,251.4458,66.781,76.5532,-0.025612,-0.0114522,0.0,0 STARLINK-5153,1 54088U 22136AP  22345.66667824 -.01145220  00000-0 -25612-1 0  9994,2 54088  53.2173 251.4458 0001324  66.7810  76.5532 15.45606519  8676,6807.734,93.167,430.5,428.697,0.0
54088.0,STARLINK-5153,PAYLOAD,2022-12-11 22:00:01,15.44995376,0.000152,53.2175,250.2605,45.3801,49.565,-0.026106,-0.01143228,0.0,0 STARLINK-5153,1 54088U 22136AP  22345.91668981 -.01143228  00000-0 -26106-1 0  9992,2 54088  53.2175 250.2605 0001520  45.3801  49.5650 15.44995376  1305,6809.529,93.204,432.429,430.359,0.0
54088.0,STARLINK-5153,PAYLOAD,2022-12-12 14:00:01,15.43366475,0.0001338,53.2173,247.1005,68.4854,134.4997,-0.027519,-0.0114008,0.0,0 STARLINK-5153,1 54088U 22136AP  22346.58334491 -.01140080  00000-0 -27519-1 0  9994,2 54088  53.2173 247.1005 0001338  68.4854 134.4997 15.43366475  1302,6814.319,93.303,437.096,435.272,0.0
54088.0,STARLINK-5153,PAYLOAD,2022-12-12 16:00:01,15.43162674,0.0001264999999999,53.2173,246.706,59.9439,246.3437,-0.02771,-0.01140056,0.0,0 STARLINK-5153,1 54088U 22136AP  22346.66668981 -.01140056  00000-0 -27710-1 0  9993,2 54088  53.2173 246.7060 0001265  59.9439 246.3437 15.43162674  8833,6814.919,93.315,437.646,435.922,0.0
54088.0,STARLINK-5153,PAYLOAD,2022-12-12 22:00:00,15.42562585,0.0001368,53.2168,245.5258,67.0234,188.5407,-0.028643,-0.01153504,0.0,0 STARLINK-5153,1 54088U 22136AP  22346.91667824 -.01153504  00000-0 -28643-1 0  9994,2 54088  53.2168 245.5258 0001368  67.0234 188.5407 15.42562585  1303,6816.686,93.351,439.484,437.619,0.0
54088.0,STARLINK-5153,PAYLOAD,2022-12-13 14:00:01,15.40924196,0.0001315999999999,53.2173,242.3767,46.5673,311.2393,-0.029832,-0.01138399,0.0,0 STARLINK-5153,1 54088U 22136AP  22347.58334491 -.01138399  00000-0 -29832-1 0  9995,2 54088  53.2173 242.3767 0001316  46.5673 311.2393 15.40924196  8978,6821.517,93.45,444.28,442.485,0.0
54088.0,STARLINK-5153,PAYLOAD,2022-12-13 22:00:00,15.40113171,0.0001525,53.2175,240.8075,41.8325,5.6235,-0.030769,-0.01142515,0.0,0 STARLINK-5153,1 54088U 22136AP  22347.91667824 -.01142515  00000-0 -30769-1 0  9997,2 54088  53.2175 240.8075 0001525  41.8325   5.6235 15.40113171  1301,6823.9119999999975,93.5,446.818,444.736,0.0
54088.0,STARLINK-5153,PAYLOAD,2022-12-14 06:00:00,15.39298171,0.0001478,53.2172,239.239,46.8431,49.2865,-0.03152,-0.01139474,0.0,0 STARLINK-5153,1 54088U 22136AP  22348.25001157 -.01139474  00000-0 -31520-1 0  9992,2 54088  53.2172 239.2390 0001478  46.8431  49.2865 15.39298171  9077,6826.32,93.549,449.194,447.177,0.0
54088.0,STARLINK-5153,PAYLOAD,2022-12-14 14:00:01,15.38484645,0.000161,53.2171,237.6709,45.7895,98.0367,-0.032429,-0.01141186,0.0,0 STARLINK-5153,1 54088U 22136AP  22348.58334491 -.01141186  00000-0 -32429-1 0  9990,2 54088  53.2171 237.6709 0001610  45.7895  98.0367 15.38484645  1301,6828.727,93.599,451.691,449.492,0.0
54088.0,STARLINK-5153,PAYLOAD,2022-12-14 22:00:00,15.37690564,0.0001447,53.217,236.1075,58.9396,131.5939,-0.034125,-0.01167436,0.0,0 STARLINK-5153,1 54088U 22136AP  22348.91667824 -.01167436  00000-0 -34125-1 0  9997,2 54088  53.2170 236.1075 0001447  58.9396 131.5939 15.37690564  1306,6831.0769999999975,93.647,453.931,451.954,0.0
54088.0,STARLINK-5153,PAYLOAD,2022-12-15 02:00:01,15.37264215,0.0001317,53.2176,235.326,53.8704,339.6644,-0.033741,-0.01140795,0.0,0 STARLINK-5153,1 54088U 22136AP  22349.08334491 -.01140795  00000-0 -33741-1 0  9999,2 54088  53.2176 235.3260 0001317  53.8704 339.6644 15.37264215  9203,6832.34,93.673,455.105,453.306,0.0
54088.0,STARLINK-5153,PAYLOAD,2022-12-15 14:00:01,15.36041682,0.0001409999999999,53.2174,232.9814,53.2241,227.8224,-0.034993,-0.01137403,0.0,0 STARLINK-5153,1 54088U 22136AP  22349.58334491 -.01137403  00000-0 -34993-1 0  9996,2 54088  53.2174 232.9814 0001410  53.2241 227.8224 15.36041682  1308,6835.965,93.747,458.794,456.866,0.0
54088.0,STARLINK-5153,PAYLOAD,2022-12-15 22:00:00,15.35228891,0.000145,53.2174,231.424,47.7371,277.0921,-0.035957,-0.01138399,0.0,0 STARLINK-5153,1 54088U 22136AP  22349.91667824 -.01138399  00000-0 -35957-1 0  9998,2 54088  53.2174 231.4240 0001450  47.7371 277.0921 15.35228891  1300,6838.378000000002,93.797,461.234,459.251,0.0
54088.0,STARLINK-5153,PAYLOAD,2022-12-16 04:00:00,15.34617447,0.0001652,53.2172,230.2563,41.9313,225.0942,-0.036574,-0.01135718,0.0,0 STARLINK-5153,1 54088U 22136AP  22350.16667824 -.01135718  00000-0 -36574-1 0  9995,2 54088  53.2172 230.2563 0001652  41.9313 225.0942 15.34617447  9378,6840.194,93.834,463.189,460.929,0.0
54088.0,STARLINK-5153,PAYLOAD,2022-12-16 14:00:01,15.33606072,0.0001597,53.217,228.3106,40.5439,8.9188,-0.03813,-0.01145445,0.0,0 STARLINK-5153,1 54088U 22136AP  22350.58334491 -.01145445  00000-0 -38130-1 0  9990,2 54088  53.2170 228.3106 0001597  40.5439   8.9188 15.33606072  1305,6843.201,93.896,466.159,463.973,0.0
54088.0,STARLINK-5153,PAYLOAD,2022-12-16 22:00:00,15.3278825,0.0001737,53.2175,226.7584,39.3162,50.9982,-0.038902,-0.01139285,0.0,0 STARLINK-5153,1 54088U 22136AP  22350.91667824 -.01139285  00000-0 -38902-1 0  9998,2 54088  53.2175 226.7584 0001737  39.3162  50.9982 15.32788250  1304,6845.635,93.946,468.689,466.311,0.0
54088.0,STARLINK-5153,PAYLOAD,2022-12-17 00:00:00,15.32583945,0.0001795,53.2175,226.3706,45.07100000000001,145.3033,-0.039084,-0.01137425,0.0,0 STARLINK-5153,1 54088U 22136AP  22351.00001157 -.01137425  00000-0 -39084-1 0  9996,2 54088  53.2175 226.3706 0001795  45.0710 145.3033 15.32583945  9491,6846.243,93.959,469.337,466.879,0.0
54088.0,STARLINK-5153,PAYLOAD,2022-12-17 14:00:01,15.31162203,0.0001739,53.217,223.6563,40.9947,128.1513,-0.041045,-0.01141749,0.0,0 STARLINK-5153,1 54088U 22136AP  22351.58335648 -.01141749  00000-0 -41045-1 0  9998,2 54088  53.2170 223.6563 0001739  40.9947 128.1513 15.31162203  1304,6850.481,94.046,473.537,471.154,0.0
54088.0,STARLINK-5153,PAYLOAD,2022-12-17 22:00:00,15.30354372,0.0001494,53.2169,222.1103,59.09,147.9052,-0.042384,-0.01148829,0.0,0 STARLINK-5153,1 54088U 22136AP  22351.91667824 -.01148829  00000-0 -42384-1 0  9992,2 54088  53.2169 222.1103 0001494  59.0900 147.9052 15.30354372  9634,6852.891,94.096,475.78,473.732,0.0
54088.0,STARLINK-5153,PAYLOAD,2022-12-18 14:00:01,15.2871758,0.0001346,53.2175,219.0186,65.0857,214.8157,-0.04403,-0.01135538,0.0,0 STARLINK-5153,1 54088U 22136AP  22352.58334491 -.01135538  00000-0 -44030-1 0  9990,2 54088  53.2175 219.0186 0001346  65.0857 214.8157 15.28717580  1308,6857.781999999997,94.197,480.57,478.724,0.0
54088.0,STARLINK-5153,PAYLOAD,2022-12-18 22:00:00,15.27904793,0.0001512,53.2174,217.4788,48.3203,266.563,-0.045204,-0.01136894,0.0,0 STARLINK-5153,1 54088U 22136AP  22352.91667824 -.01136894  00000-0 -45204-1 0  9996,2 54088  53.2174 217.4788 0001512  48.3203 266.5630 15.27904793  1304,6860.214,94.247,483.116,481.041,0.0
54088.0,STARLINK-5153,PAYLOAD,2022-12-19 08:00:01,15.26887649,0.0001595999999999,53.2175,215.5531,43.7196,43.5187,-0.046633,-0.01136868,0.0,0 STARLINK-5153,1 54088U 22136AP  22353.33334491 -.01136868  00000-0 -46633-1 0  9992,2 54088  53.2175 215.5531 0001596  43.7196  43.5187 15.26887649  9859,6863.26,94.309,486.22,484.03,0.0
54088.0,STARLINK-5153,PAYLOAD,2022-12-19 12:00:00,15.26478685,0.000144,53.2174,214.7834,52.8229,230.9303,-0.047054,-0.01133218,0.0,0 STARLINK-5153,1 54088U 22136AP  22353.50001157 -.01133218  00000-0 -47054-1 0  9995,2 54088  53.2174 214.7834 0001440  52.8229 230.9303 15.26478685  1301,6864.486,94.335,487.339,485.362,0.0
54088.0,STARLINK-5153,PAYLOAD,2022-12-19 22:00:00,15.25465036,0.0001619,53.2175,212.8648,43.112,10.8541,-0.048797,-0.01154266,0.0,0 STARLINK-5153,1 54088U 22136AP  22353.91667824 -.01154266  00000-0 -48797-1 0  9990,2 54088  53.2175 212.8648 0001619  43.1120  10.8541 15.25465036  1309,6867.526,94.397,490.503,488.28,0.0
54088.0,STARLINK-5153,PAYLOAD,2022-12-20 14:00:01,15.23840973,0.000173,53.2168,209.7973,43.4654,71.6655,-0.05141,-0.01157777,0.0,0 STARLINK-5153,1 54088U 22136AP  22354.58334491 -.01157777  00000-0 -51410-1 0  9991,2 54088  53.2168 209.7973 0001730  43.4654  71.6655 15.23840973  1302,6872.405,94.498,495.459,493.081,0.0
54088.0,STARLINK-5153,PAYLOAD,2022-12-21 08:00:01,15.21994512,0.0001259,53.2119,206.3609,85.7258,183.5848,-0.053622,-0.01143971,0.0,0 STARLINK-5153,1 54088U 22136AP  22355.33334491 -.01143971  00000-0 -53622-1 0  9993,2 54088  53.2119 206.3609 0001259  85.7258 183.5848 15.21994512 10160,6877.962,94.613,500.693,498.961,0.0
54088.0,STARLINK-5153,PAYLOAD,2022-12-21 14:00:01,15.21403599,0.0001444,53.2119,205.2157,90.5287,109.0465,-0.055155,-0.01155375,0.0,0 STARLINK-5153,1 54088U 22136AP  22355.58334491 -.01155375  00000-0 -55155-1 0  9994,2 54088  53.2119 205.2157 0001444  90.5287 109.0465 15.21403599  1302,6879.743,94.649,502.601,500.615,0.0
54088.0,STARLINK-5153,PAYLOAD,2022-12-22 08:00:01,15.19545799,0.000116,53.2124,201.7875,84.9548,262.1747,-0.056854,-0.01129731,0.0,0 STARLINK-5153,1 54088U 22136AP  22356.33334491 -.01129731  00000-0 -56854-1 0  9992,2 54088  53.2124 201.7875 0001160  84.9548 262.1747 15.19545799 10319,6885.349,94.765,508.013,506.416,0.0
